{"fetched_at":"2026-03-29T02:12:04Z","count":15717,"tles":[{"name":"BEIDOU-3 M14 (C33)","line1":"1 43623U 18072B   26087.32100495 -.00000002  00000+0  00000+0 0  9994","line2":"2 43623  56.5577  65.3203 0006825 333.8606  26.0987  1.86230900 51146","category":"GPS"}]}